STARLINK-1860
1 27147C 20088AB  21325.12918013  .00002651  00000-0  17759-3 0  3258
2 27147  53.0521 147.6608 0002188  69.6846 319.9957 15.06401794    12
